[{"OBJECT_NAME":"STARLINK-1434","OBJECT_ID":"2020-035BH","EPOCH":"2026-03-09T05:47:35.213856","MEAN_MOTION":15.26724568,"ECCENTRICITY":0.00053438,"INCLINATION":53.0547,"RA_OF_ASC_NODE":22.1128,"ARG_OF_PERICENTER":88.04,"MEAN_ANOMALY":272.121,"EPHEMERIS_TYPE":0,"CLASSIFICATION_TYPE":"U","NORAD_CAT_ID":45712,"ELEMENT_SET_NO":999,"REV_AT_EPOCH":31932,"BSTAR":0.0020295208,"MEAN_MOTION_DOT":0.00054112,"MEAN_MOTION_DDOT":0},{"OBJECT_NAME":"STARLINK-31970","OBJECT_ID":"2024-106G","EPOCH":"2026-03-09T02:39:02.417760","MEAN_MOTION":15.27580902,"ECCENTRICITY":0.00011668,"INCLINATION":43.0032,"RA_OF_ASC_NODE":335.8462,"ARG_OF_PERICENTER":262.4083,"MEAN_ANOMALY":97.6636,"EPHEMERIS_TYPE":0,"CLASSIFICATION_TYPE":"U","NORAD_CAT_ID":59928,"ELEMENT_SET_NO":999,"REV_AT_EPOCH":10048,"BSTAR":-6.2900407e-5,"MEAN_MOTION_DOT":-1.993e-5,"MEAN_MOTION_DDOT":0}]
